OBJECT_NAME,OBJECT_ID,EPOCH,MEAN_MOTION,ECCENTRICITY,INCLINATION,RA_OF_ASC_NODE,ARG_OF_PERICENTER,MEAN_ANOMALY,EPHEMERIS_TYPE,CLASSIFICATION_TYPE,NORAD_CAT_ID,ELEMENT_SET_NO,REV_AT_EPOCH,BSTAR,MEAN_MOTION_DOT,MEAN_MOTION_DDOT
GSAT0225 (GALILEO 29),2024-079A,2026-06-27T02:08:27.794112,1.70474177,.00016021,55.1252,100.8034,296.6342,246.1420,0,U,59598,999,1348,0,-.38E-6,0
GSAT0227 (GALILEO 30),2024-079C,2026-06-23T10:55:38.202528,1.70473918,.00024194,55.1185,100.9033,58.0764,301.9236,0,U,59600,999,1347,0,-.33E-6,0
GSAT0232 (GALILEO 32),2024-167A,2026-06-27T05:03:51.138720,1.70474501,.0006275,55.1827,221.0386,229.7810,130.7838,0,U,61182,999,1105,0,.67E-6,0
GSAT0226 (GALILEO 31),2024-167B,2026-06-26T11:30:20.311200,1.70474505,.0002937,55.1816,221.0657,230.4036,132.4929,0,U,61183,999,1101,0,.64E-6,0
BEIDOU-3 M25 (C47),2024-168B,2026-06-26T16:31:15.592224,1.86230368,.0003152,54.4642,301.9122,298.5828,129.4520,0,U,61186,999,1196,0,-.1E-5,0
BEIDOU-3 M27 (C49),2024-168C,2026-06-27T05:44:00.597984,1.86230441,.00013549,54.4589,301.8760,48.0661,164.0950,0,U,61187,999,944,0,-.96E-6,0
GPS BIII-7  (PRN 01),2024-242A,2026-06-26T01:37:41.317248,2.00572026,.00176661,54.8454,333.8210,4.5395,177.0108,0,U,62339,999,1143,0,-.106E-5,0
QZS-6 (QZSS/PRN 200),2025-023A,2026-06-27T11:13:37.038720,1.00273457,.0002087,0.0540,281.4825,186.1670,66.8515,0,U,62876,999,505,0,-.222E-5,0
COSMOS 2584 (704K),2025-042A,2026-06-25T14:05:06.281664,2.13103987,.00062611,65.0897,72.5163,227.4073,132.5759,0,U,63130,999,1022,0,-.66E-6,0
GPS BIII-8  (PRN 21),2025-116A,2026-06-26T19:26:36.979008,2.00575489,.00082114,55.2410,30.7429,341.8518,198.6720,0,U,64202,999,806,0,-.84E-6,0
COSMOS 2596 (708K),2025-206B,2026-06-24T23:11:42.537984,2.13100978,.00110095,64.6296,314.7142,310.6805,49.5796,0,U,65590,999,608,0,-.86E-6,0
GSAT0233 (GALILEO 33),2025-302A,2026-06-24T02:17:01.853376,1.70474189,.0000823,54.3398,101.9339,209.8671,226.2605,0,U,67160,999,324,0,-.35E-6,0
GSAT0234 (GALILEO 34),2025-302C,2026-06-27T11:42:56.389824,1.70474246,.0002918,54.3430,101.8368,307.1901,231.4101,0,U,67162,999,335,0,-.36E-6,0
GPS BIII-9  (PRN 20),2026-017A,2026-06-27T04:02:42.169632,2.00570971,.0021174,55.0946,88.3546,258.3861,101.3819,0,U,67588,999,43181,0,-.63E-6,0
GPS BIII-10 (PRN 13),2026-087A,2026-06-22T15:38:01.863744,2.00570839,.00206819,54.9627,207.5713,106.6591,76.9843,0,U,68791,999,94,0,.58E-6,0
